0 OPS 3367 A
1 00734U 64002B   13281.42635332  .00000025  00000-0  29100-4 0   599
2 00734 099.0406 338.9949 0013609 284.9859 074.9815 14.28499265586938
0 OPS 3367 A
1 00734U 64002B   13282.75716839  .00000026  00000-0  29218-4 0   601
2 00734 099.0406 340.3732 0013631 280.8371 079.1275 14.28499799587125
0 OPS 3367 A
1 00734U 64002B   13284.01794014  .00000059  00000-0  42393-4 0   619
2 00734 099.0405 341.6789 0013610 276.8911 083.0721 14.28499860587301
0 OPS 3367 A
1 00734U 64002B   13285.97914063  .00000059  00000-0  42724-4 0   622
2 00734 099.0401 343.7102 0013638 270.7910 089.1708 14.28500162587581
0 OPS 3367 A
1 00734U 64002B   13287.16986947  .00000078  00000-0  50243-4 0   632
2 00734 099.0398 344.9434 0013673 267.0732 092.8884 14.28500466587759
0 OPS 3367 A
1 00734U 64002B   13288.22051253  .00000111  00000-0  63350-4 0   645
2 00734 099.0395 346.0316 0013686 263.7976 096.1645 14.28500813587900
0 OPS 3367 A
1 00734U 64002B   13289.41124113  .00000069  00000-0  46342-4 0   658
2 00734 099.0392 347.2647 0013747 260.1614 099.8014 14.28501297588071
0 OPS 3367 A
1 00734U 64002B   13290.67201249  .00000085  00000-0  52907-4 0   667
2 00734 099.0388 348.5703 0013744 256.2255 103.7396 14.28501742588250
0 OPS 3367 A
1 00734U 64002B   13291.72265487  .00000085  00000-0  52903-4 0   675
2 00734 099.0385 349.6582 0013784 253.0334 106.9335 14.28501973588402
0 OPS 3367 A
1 00734U 64002B   13292.77329721  .00000089  00000-0  54501-4 0   684
2 00734 099.0384 350.7461 0013841 249.8796 110.0895 14.28502289588553
0 OPS 3367 A
1 00734U 64002B   13294.17415370  .00000065  00000-0  44931-4 0   697
2 00734 099.0384 352.1966 0013892 245.6047 114.3683 14.28502724588756
0 OPS 3367 A
1 00734U 64002B   13295.22479577  .00000074  00000-0  48468-4 0   704
2 00734 099.0383 353.2843 0013910 242.3632 117.6137 14.28502936588908
